ONEWEB-0196             
1 48218U 21031J   25043.93192975  .00000232  00000+0  59076-3 0  9995
2 48218  87.9015  26.9794 0001945  86.1812 273.9540 13.14501041183953
ONEWEB-0183             
1 48219U 21031K   25043.90656499 -.00000100  00000+0 -30303-3 0  9997
2 48219  87.9018  26.9983 0001725  81.3144 278.8181 13.14503440184049
ONEWEB-0185             
1 48220U 21031L   25043.93273617  .00000227  00000+0  57767-3 0  9990
2 48220  87.9013  26.9636 0001903  77.4962 282.6381 13.14503567183979
ONEWEB-0187             
1 48221U 21031M   25043.90259289 -.00000214  00000+0 -61167-3 0  9994
2 48221  87.9019  27.0051 0001814  81.2018 278.9317 13.14503771183980
ONEWEB-0192             
1 48222U 21031N   25043.95888495 -.00000032  00000+0 -12166-3 0  9990
2 48222  87.9017  26.9919 0001954  84.9809 275.1543 13.14500669183908
ONEWEB-0219             
1 48223U 21031P   25043.93825885  .00000059  00000+0  12364-3 0  9990
2 48223  87.9017  26.9691 0001910  79.6078 280.5266 13.14503655184100
ONEWEB-0202             
1 48224U 21031Q   25043.91922850 -.00000095  00000+0 -29055-3 0  9996
2 48224  87.9013  26.9891 0002694  82.4108 277.7327 13.14504938184083
ONEWEB-0204             
1 48225U 21031R   25043.95334968  .00000446  00000+0  11682-2 0  9992
2 48225  87.9015  26.9947 0001523  82.1976 277.9327 13.14501899183981
